SL-3 R/B                
1 13154U 82039B   25318.79686281  .00003859  00000+0  23788-3 0  9997
2 13154  81.1791 348.2296 0032006 344.3372  15.6859 15.09305178364303
SL-3 R/B                
1 13403U 82079B   25318.76484822  .00007433  00000+0  31067-3 0  9993
2 13403  81.1469 328.6303 0025429 191.1573 168.9100 15.23169222360193
SL-14 R/B               
1 13553U 82092B   25318.74281689  .00001213  00000+0  13399-3 0  9996
2 13553  82.5682 248.8923 0019545 326.7624  77.7123 14.86510569311850
SL-3 R/B                
1 13819U 83010B   25317.97757046  .00026054  00000+0  59677-3 0  9990
2 13819  81.1027 143.6994 0018233  89.0071 271.3261 15.42454662340087
SL-3 R/B                
1 14208U 83075B   25318.83477770  .00013463  00000+0  39135-3 0  9990
2 14208  97.6105 314.3990 0021056 281.4601  78.4277 15.35367461312518
COSMOS 1536             
1 14699U 84013A   25318.47572501  .00010660  00000+0  46325-3 0  9990
2 14699  82.5471 222.1808 0014390 335.6692  24.3863 15.22068525255084
SL-14 R/B               
1 14820U 84027B   25318.54081524  .00000918  00000+0  10253-3 0  9995
2 14820  82.5426 353.0021 0017908   0.0506   0.0708 14.85832225230532
SL-8 R/B                
1 15483U 85006B   25318.86604093  .00000558  00000+0  19394-3 0  9991
2 15483  74.0435 112.4157 0017635  53.4762  98.3830 14.37696077137525
SL-12 R/B(2)            
1 15772U 85042D   25318.76948433  .00000249  00000+0  13359-3 0  9992
2 15772  71.1082 330.5120 0037341 302.4226 230.7481 14.21938788 98052
SL-14 R/B               
1 15945U 85069B   25318.49313131  .00001140  00000+0  12662-3 0  9991
2 15945  82.5244 133.2592 0018010 210.2046 149.8134 14.86275241155721
SL-16 R/B               
1 16182U 85097B   25318.62440625  .00000109  00000+0  78413-4 0  9991
2 16182  71.0045  22.7940 0005341  64.1214  97.5628 14.16576420 70934
SL-14 R/B               
1 16496U 86006B   25318.56539170  .00001286  00000+0  13505-3 0  9994
2 16496  82.5289   8.0602 0075360 294.8250  64.5142 14.86615516132101
