CCSDS_OMM_VERS = 2.0
CREATION_DATE  = 
ORIGINATOR     = 

OBJECT_NAME    = SL-3 R/B
OBJECT_ID      = 1982-039B
CENTER_NAME    = EARTH
REF_FRAME      = TEME
TIME_SYSTEM    = UTC
MEAN_ELEMENT_THEORY = SGP/SGP4

EPOCH          = 2025-11-14T19:07:28.946784
MEAN_MOTION    = 15.09305178
ECCENTRICITY   = .0032006
INCLINATION    = 81.1791
RA_OF_ASC_NODE = 348.2296
ARG_OF_PERICENTER = 344.3372
MEAN_ANOMALY   = 15.6859

EPHEMERIS_TYPE = 0
CLASSIFICATION_TYPE = U
NORAD_CAT_ID   = 13154
ELEMENT_SET_NO = 999
REV_AT_EPOCH   = 36430
BSTAR          = .23788E-3
MEAN_MOTION_DOT = .3859E-4
MEAN_MOTION_DDOT = 0

CCSDS_OMM_VERS = 2.0
CREATION_DATE  = 
ORIGINATOR     = 

OBJECT_NAME    = SL-3 R/B
OBJECT_ID      = 1982-079B
CENTER_NAME    = EARTH
REF_FRAME      = TEME
TIME_SYSTEM    = UTC
MEAN_ELEMENT_THEORY = SGP/SGP4

EPOCH          = 2025-11-14T18:21:22.886208
MEAN_MOTION    = 15.23169222
ECCENTRICITY   = .0025429
INCLINATION    = 81.1469
RA_OF_ASC_NODE = 328.6303
ARG_OF_PERICENTER = 191.1573
MEAN_ANOMALY   = 168.9100

EPHEMERIS_TYPE = 0
CLASSIFICATION_TYPE = U
NORAD_CAT_ID   = 13403
ELEMENT_SET_NO = 999
REV_AT_EPOCH   = 36019
BSTAR          = .31067E-3
MEAN_MOTION_DOT = .7433E-4
MEAN_MOTION_DDOT = 0

CCSDS_OMM_VERS = 2.0
CREATION_DATE  = 
ORIGINATOR     = 

OBJECT_NAME    = SL-14 R/B
OBJECT_ID      = 1982-092B
CENTER_NAME    = EARTH
REF_FRAME      = TEME
TIME_SYSTEM    = UTC
MEAN_ELEMENT_THEORY = SGP/SGP4

EPOCH          = 2025-11-14T17:49:39.379296
MEAN_MOTION    = 14.86510569
ECCENTRICITY   = .0019545
INCLINATION    = 82.5682
RA_OF_ASC_NODE = 248.8923
ARG_OF_PERICENTER = 326.7624
MEAN_ANOMALY   = 77.7123

EPHEMERIS_TYPE = 0
CLASSIFICATION_TYPE = U
NORAD_CAT_ID   = 13553
ELEMENT_SET_NO = 999
REV_AT_EPOCH   = 31185
BSTAR          = .13399E-3
MEAN_MOTION_DOT = .1213E-4
MEAN_MOTION_DDOT = 0

CCSDS_OMM_VERS = 2.0
CREATION_DATE  = 
ORIGINATOR     = 

OBJECT_NAME    = SL-3 R/B
OBJECT_ID      = 1983-010B
CENTER_NAME    = EARTH
REF_FRAME      = TEME
TIME_SYSTEM    = UTC
MEAN_ELEMENT_THEORY = SGP/SGP4

EPOCH          = 2025-11-13T23:27:42.087744
MEAN_MOTION    = 15.42454662
ECCENTRICITY   = .00182339
INCLINATION    = 81.1027
RA_OF_ASC_NODE = 143.6994
ARG_OF_PERICENTER = 89.0071
MEAN_ANOMALY   = 271.3261

EPHEMERIS_TYPE = 0
CLASSIFICATION_TYPE = U
NORAD_CAT_ID   = 13819
ELEMENT_SET_NO = 999
REV_AT_EPOCH   = 34008
BSTAR          = .59676785E-3
MEAN_MOTION_DOT = .26054E-3
MEAN_MOTION_DDOT = 0

CCSDS_OMM_VERS = 2.0
CREATION_DATE  = 
ORIGINATOR     = 

OBJECT_NAME    = SL-3 R/B
OBJECT_ID      = 1983-075B
CENTER_NAME    = EARTH
REF_FRAME      = TEME
TIME_SYSTEM    = UTC
MEAN_ELEMENT_THEORY = SGP/SGP4

EPOCH          = 2025-11-14T20:02:04.793280
MEAN_MOTION    = 15.35367461
ECCENTRICITY   = .0021056
INCLINATION    = 97.6105
RA_OF_ASC_NODE = 314.3990
ARG_OF_PERICENTER = 281.4601
MEAN_ANOMALY   = 78.4277

EPHEMERIS_TYPE = 0
CLASSIFICATION_TYPE = U
NORAD_CAT_ID   = 14208
ELEMENT_SET_NO = 999
REV_AT_EPOCH   = 31251
BSTAR          = .39135E-3
MEAN_MOTION_DOT = .13463E-3
MEAN_MOTION_DDOT = 0

CCSDS_OMM_VERS = 2.0
CREATION_DATE  = 
ORIGINATOR     = 

OBJECT_NAME    = COSMOS 1536
OBJECT_ID      = 1984-013A
CENTER_NAME    = EARTH
REF_FRAME      = TEME
TIME_SYSTEM    = UTC
MEAN_ELEMENT_THEORY = SGP/SGP4

EPOCH          = 2025-11-14T11:25:02.640864
MEAN_MOTION    = 15.22068525
ECCENTRICITY   = .001439
INCLINATION    = 82.5471
RA_OF_ASC_NODE = 222.1808
ARG_OF_PERICENTER = 335.6692
MEAN_ANOMALY   = 24.3863

EPHEMERIS_TYPE = 0
CLASSIFICATION_TYPE = U
NORAD_CAT_ID   = 14699
ELEMENT_SET_NO = 999
REV_AT_EPOCH   = 25508
BSTAR          = .46325E-3
MEAN_MOTION_DOT = .1066E-3
MEAN_MOTION_DDOT = 0

CCSDS_OMM_VERS = 2.0
CREATION_DATE  = 
ORIGINATOR     = 

OBJECT_NAME    = SL-14 R/B
OBJECT_ID      = 1984-027B
CENTER_NAME    = EARTH
REF_FRAME      = TEME
TIME_SYSTEM    = UTC
MEAN_ELEMENT_THEORY = SGP/SGP4

EPOCH          = 2025-11-14T12:58:46.436736
MEAN_MOTION    = 14.85832225
ECCENTRICITY   = .0017908
INCLINATION    = 82.5426
RA_OF_ASC_NODE = 353.0021
ARG_OF_PERICENTER = 0.0506
MEAN_ANOMALY   = 0.0708

EPHEMERIS_TYPE = 0
CLASSIFICATION_TYPE = U
NORAD_CAT_ID   = 14820
ELEMENT_SET_NO = 999
REV_AT_EPOCH   = 23053
BSTAR          = .10253E-3
MEAN_MOTION_DOT = .918E-5
MEAN_MOTION_DDOT = 0

CCSDS_OMM_VERS = 2.0
CREATION_DATE  = 
ORIGINATOR     = 

OBJECT_NAME    = SL-8 R/B
OBJECT_ID      = 1985-006B
CENTER_NAME    = EARTH
REF_FRAME      = TEME
TIME_SYSTEM    = UTC
MEAN_ELEMENT_THEORY = SGP/SGP4

EPOCH          = 2025-11-14T20:47:05.936352
MEAN_MOTION    = 14.37696077
ECCENTRICITY   = .0017635
INCLINATION    = 74.0435
RA_OF_ASC_NODE = 112.4157
ARG_OF_PERICENTER = 53.4762
MEAN_ANOMALY   = 98.3830

EPHEMERIS_TYPE = 0
CLASSIFICATION_TYPE = U
NORAD_CAT_ID   = 15483
ELEMENT_SET_NO = 999
REV_AT_EPOCH   = 13752
BSTAR          = .19394E-3
MEAN_MOTION_DOT = .558E-5
MEAN_MOTION_DDOT = 0

CCSDS_OMM_VERS = 2.0
CREATION_DATE  = 
ORIGINATOR     = 

OBJECT_NAME    = SL-12 R/B(2)
OBJECT_ID      = 1985-042D
CENTER_NAME    = EARTH
REF_FRAME      = TEME
TIME_SYSTEM    = UTC
MEAN_ELEMENT_THEORY = SGP/SGP4

EPOCH          = 2025-11-14T18:28:03.446112
MEAN_MOTION    = 14.21938788
ECCENTRICITY   = .0037341
INCLINATION    = 71.1082
RA_OF_ASC_NODE = 330.5120
ARG_OF_PERICENTER = 302.4226
MEAN_ANOMALY   = 230.7481

EPHEMERIS_TYPE = 0
CLASSIFICATION_TYPE = U
NORAD_CAT_ID   = 15772
ELEMENT_SET_NO = 999
REV_AT_EPOCH   = 9805
BSTAR          = .13359E-3
MEAN_MOTION_DOT = .249E-5
MEAN_MOTION_DDOT = 0

CCSDS_OMM_VERS = 2.0
CREATION_DATE  = 
ORIGINATOR     = 

OBJECT_NAME    = SL-14 R/B
OBJECT_ID      = 1985-069B
CENTER_NAME    = EARTH
REF_FRAME      = TEME
TIME_SYSTEM    = UTC
MEAN_ELEMENT_THEORY = SGP/SGP4

EPOCH          = 2025-11-14T11:50:06.545184
MEAN_MOTION    = 14.86275241
ECCENTRICITY   = .001801
INCLINATION    = 82.5244
RA_OF_ASC_NODE = 133.2592
ARG_OF_PERICENTER = 210.2046
MEAN_ANOMALY   = 149.8134

EPHEMERIS_TYPE = 0
CLASSIFICATION_TYPE = U
NORAD_CAT_ID   = 15945
ELEMENT_SET_NO = 999
REV_AT_EPOCH   = 15572
BSTAR          = .12662E-3
MEAN_MOTION_DOT = .114E-4
MEAN_MOTION_DDOT = 0

CCSDS_OMM_VERS = 2.0
CREATION_DATE  = 
ORIGINATOR     = 

OBJECT_NAME    = SL-16 R/B
OBJECT_ID      = 1985-097B
CENTER_NAME    = EARTH
REF_FRAME      = TEME
TIME_SYSTEM    = UTC
MEAN_ELEMENT_THEORY = SGP/SGP4

EPOCH          = 2025-11-14T14:59:08.700000
MEAN_MOTION    = 14.16576420
ECCENTRICITY   = .0005341
INCLINATION    = 71.0045
RA_OF_ASC_NODE = 22.7940
ARG_OF_PERICENTER = 64.1214
MEAN_ANOMALY   = 97.5628

EPHEMERIS_TYPE = 0
CLASSIFICATION_TYPE = U
NORAD_CAT_ID   = 16182
ELEMENT_SET_NO = 999
REV_AT_EPOCH   = 7093
BSTAR          = .78413E-4
MEAN_MOTION_DOT = .109E-5
MEAN_MOTION_DDOT = 0

CCSDS_OMM_VERS = 2.0
CREATION_DATE  = 
ORIGINATOR     = 

OBJECT_NAME    = SL-14 R/B
OBJECT_ID      = 1986-006B
CENTER_NAME    = EARTH
REF_FRAME      = TEME
TIME_SYSTEM    = UTC
MEAN_ELEMENT_THEORY = SGP/SGP4

EPOCH          = 2025-11-14T13:34:09.842880
MEAN_MOTION    = 14.86615516
ECCENTRICITY   = .007536
INCLINATION    = 82.5289
RA_OF_ASC_NODE = 8.0602
ARG_OF_PERICENTER = 294.8250
MEAN_ANOMALY   = 64.5142

EPHEMERIS_TYPE = 0
CLASSIFICATION_TYPE = U
NORAD_CAT_ID   = 16496
ELEMENT_SET_NO = 999
REV_AT_EPOCH   = 13210
BSTAR          = .13505E-3
MEAN_MOTION_DOT = .1286E-4
MEAN_MOTION_DDOT = 0

